{
    "links": {
        "self": "http://www.neowsapp.com/rest/v1/neo/3836181?api_key=iIulBulltgU6a56xZRHN4H3l9WmuAYTsLGpBGhQ2"
    },
    "id": "3836181",
    "neo_reference_id": "3836181",
    "name": "(2018 VD7)",
    "designation": "2018 VD7",
    "nasa_jpl_url": "http://ssd.jpl.nasa.gov/sbdb.cgi?sstr=3836181",
    "absolute_magnitude_h": 25.8,
    "estimated_diameter": {
        "kilometers": {
            "estimated_diameter_min": 0.0183888672,
            "estimated_diameter_max": 0.0411187571
        },
        "meters": {
            "estimated_diameter_min": 18.388867207,
            "estimated_diameter_max": 41.1187571041
        },
        "miles": {
            "estimated_diameter_min": 0.0114263088,
            "estimated_diameter_max": 0.0255500032
        },
        "feet": {
            "estimated_diameter_min": 60.3309310875,
            "estimated_diameter_max": 134.9040630575
        }
    },
    "is_potentially_hazardous_asteroid": false,
    "close_approach_data": [
        {
            "close_approach_date": "2018-11-14",
            "close_approach_date_full": "2018-Nov-14 10:10",
            "epoch_date_close_approach": 1542190200000,
            "relative_velocity": {
                "kilometers_per_second": "10.9577287153",
                "kilometers_per_hour": "39447.8233750472",
                "miles_per_hour": "24511.3433632342"
            },
            "miss_distance": {
                "astronomical": "0.02322917",
                "lunar": "9.03614713",
                "kilometers": "3475034.3538679",
                "miles": "2159286.22006102"
            },
            "orbiting_body": "Earth"
        }
    ],
    "orbital_data": {
        "orbit_id": "1",
        "orbit_determination_date": "2018-11-11 11:12:03",
        "first_observation_date": "2018-11-10",
        "last_observation_date": "2018-11-11",
        "data_arc_in_days": 1,
        "observations_used": 23,
        "orbit_uncertainty": "8",
        "minimum_orbit_intersection": ".0199754",
        "jupiter_tisserand_invariant": "3.311",
        "epoch_osculation": "2458433.5",
        "eccentricity": ".5966852961243487",
        "semi_major_axis": "2.308718880928662",
        "inclination": "8.441556691629946",
        "ascending_node_longitude": "43.30955303000348",
        "orbital_period": "1281.31234033158",
        "perihelion_distance": ".9311402717938683",
        "perihelion_argument": "42.0818320046405",
        "aphelion_distance": "3.686297490063455",
        "perihelion_time": "2458462.704299479789",
        "mean_anomaly": "351.7947033820003",
        "mean_motion": ".280961939308911",
        "equinox": "J2000",
        "orbit_class": {
            "orbit_class_type": "APO",
            "orbit_class_description": "Near-Earth asteroid orbits which cross the Earth’s orbit similar to that of 1862 Apollo",
            "orbit_class_range": "a (semi-major axis) > 1.0 AU; q (perihelion) < 1.017 AU"
        }
    },
    "is_sentry_object": false
}